     2.11           N: GPS NAV DATA                         RINEX VERSION / TYPE
teqc  2019Feb25     CORS-ADM Account    20260506 02:45:01UTCPGM / RUN BY / DATE
Linux 2.4.21-27.ELsmp|Opteron|gcc|Linux 64|=+               COMMENT
     2.10           N: GPS NAV DATA                         COMMENT
rvacn.e(1404.07)                        2026-05-06T02:27 UTCCOMMENT
This file contains the validated broadcast navigation       COMMENT
messages from the following files:                          COMMENT
aaaa1260.26n, abmf126b.26n, albh126b.26n, alic126b.26n,     COMMENT
areq126b.26n, aruc126b.26n, baie126b.26n, bake126b.26n,     COMMENT
brew126b.26n, brst126b.26n, brux126b.26n, bucu126b.26n,     COMMENT
cebr126b.26n, chpi126b.26n, chum126b.26n, chur126b.26n,     COMMENT
ckis126b.26n, coco126b.26n, cro1126b.26n, darw126b.26n,     COMMENT
dav1126b.26n, dgar126b.26n, dlf1126b.26n, drao126b.26n,     COMMENT
dubo126b.26n, ebre126b.26n, faa1126b.26n, fair126b.26n,     COMMENT
falk126b.26n, flin126b.26n, glps126b.26n, glsv126b.26n,     COMMENT
gode126b.26n, guam126b.26n, harb126b.26n, hers126b.26n,     COMMENT
hlfx126b.26n, hob2126b.26n, hofn126b.26n, holb126b.26n,     COMMENT
hrao126b.26n, iqal126b.26n, ista126b.26n, joze126b.26n,     COMMENT
jplm126b.26n, karr126b.26n, kat1126b.26n, kiri126b.26n,     COMMENT
kiru126b.26n, kokb126b.26n, koug126b.26n, kour126b.26n,     COMMENT
lmmf126b.26n, lpal126b.26n, m0se126b.26n, mac1126b.26n,     COMMENT
maju126b.26n, mal2126b.26n, mar6126b.26n, mas1126b.26n,     COMMENT
mat1126b.26n, mate126b.26n, maw1126b.26n, mcm4126b.26n,     COMMENT
mdo1126b.26n, medi126b.26n, met3126b.26n, mkea126b.26n,     COMMENT
mobs126b.26n, mro1126b.26n, nain126b.26n, nano126b.26n,     COMMENT
naur126b.26n, nico126b.26n, nist126b.26n, nklg126b.26n,     COMMENT
nlib126b.26n, nnor126b.26n, not1126b.26n, nrc1126b.26n,     COMMENT
onsa126b.26n, orid126b.26n, palm126b.26n, pert126b.26n,     COMMENT
picl126b.26n, pie1126b.26n, pimo126b.26n, pohn126b.26n,     COMMENT
prds126b.26n, qaq1126b.26n, qiki126b.26n, reso126b.26n,     COMMENT
reun126b.26n, reyk126b.26n, riga126b.26n, sant126b.26n,     COMMENT
sask126b.26n, sch2126b.26n, scor126b.26n, solo126b.26n,     COMMENT
stj3126b.26n, stjo126b.26n, stpm126b.26n, suth126b.26n,     COMMENT
suwn126b.26n, sydn126b.26n, thtg126b.26n, thu2126b.26n,     COMMENT
tid1126b.26n, tow2126b.26n, unbj126b.26n, usud126b.26n,     COMMENT
vacs126b.26n, vald126b.26n, vill126b.26n, vis0126b.26n,     COMMENT
warn126b.26n, whit126b.26n, will126b.26n, wsrt126b.26n,     COMMENT
wtzr126b.26n, xmis126b.26n, yar2126b.26n, yarr126b.26n,     COMMENT
yebe126b.26n, yell126b.26n, zim2126b.26n, zimm126b.26n      COMMENT
    1.6764D-08  2.2352D-08 -1.1921D-07 -1.1921D-07          ION ALPHA
    1.1059D+05  9.8304D+04 -1.3107D+05 -1.9661D+05          ION BETA
    0.000000000000D+00 0.000000000000D+00   503808     2417 DELTA-UTC: A0,A1,T,W
                                                            END OF HEADER
 4 26  5  5 22  0  0.0 5.595386028290D-05 1.364242052659D-12 0.000000000000D+00
    2.170000000000D+02-5.559375000000D+01 4.168745073537D-09 1.261579545966D-01
   -3.015622496605D-06 3.738804254681D-03 9.322538971901D-06 5.153709167480D+03
    2.520000000000D+05-2.421438694000D-08-2.216564651741D+00 2.793967723846D-08
    9.712524710096D-01 2.017500000000D+02-2.872436712564D+00-7.747465570181D-09
    2.525105180766D-10 1.000000000000D+00 2.417000000000D+03 0.000000000000D+00
    2.000000000000D+00 0.000000000000D+00-4.656613000000D-09 4.730000000000D+02
    2.448300000000D+05 4.000000000000D+00
 5 26  5  5 22  0  0.0-2.326178364456D-04-4.547473508865D-13 0.000000000000D+00
    9.100000000000D+01-8.453125000000D+01 4.221604418198D-09 7.776909930829D-01
   -4.321336746216D-06 5.549345398322D-03 5.004927515984D-06 5.153739345551D+03
    2.520000000000D+05-5.401670932770D-08 2.937174508034D+00 2.421438694000D-08
    9.808621370280D-01 2.968125000000D+02 1.429679258028D+00-8.024977129652D-09
   -1.125046862718D-10 1.000000000000D+00 2.417000000000D+03 0.000000000000D+00
    2.000000000000D+00 0.000000000000D+00-1.071021000000D-08 9.100000000000D+01
    2.483400000000D+05 4.000000000000D+00
 6 26  5  5 22  0  0.0-6.059892475605D-04 3.183231456205D-12 0.000000000000D+00
    1.040000000000D+02 4.531250000000D+01 4.153387290966D-09-1.545853210740D+00
    2.155080437660D-06 3.745332011022D-03 2.333894371986D-06 5.153675973892D+03
    2.520000000000D+05-7.078051567078D-08 1.960646657877D+00-9.685754776001D-08
    9.861225534483D-01 3.514375000000D+02-5.253981628852D-01-8.108909197188D-09
    1.703642392115D-10 1.000000000000D+00 2.417000000000D+03 0.000000000000D+00
    2.000000000000D+00 0.000000000000D+00 3.725290298462D-09 1.040000000000D+02
    2.448000000000D+05
 7 26  5  5 22  0  0.0-1.812675036490D-04-4.320099833421D-12 0.000000000000D+00
    4.200000000000D+01-8.937500000000D+00 4.789485215569D-09-2.364802635179D+00
   -5.196779966354D-07 2.081611461472D-02 5.787238478661D-06 5.153598276138D+03
    2.520000000000D+05 2.458691596985D-07-1.208134569597D+00-6.519258022308D-08
    9.506090174812D-01 2.589687500000D+02-1.971711169593D+00-7.686391597634D-09
    2.375098932404D-10 1.000000000000D+00 2.417000000000D+03 0.000000000000D+00
    2.000000000000D+00 0.000000000000D+00-1.071020960808D-08 4.200000000000D+01
    2.488390000000D+05 4.000000000000D+00
 9 26  5  5 22  0  0.0 7.532616145909D-04-3.979039320257D-12 0.000000000000D+00
    1.080000000000D+02-6.078125000000D+01 4.220175787261D-09 1.029882255804D+00
   -3.324821591377D-06 3.387921955436D-03 9.296461939812D-06 5.153746751785D+03
    2.520000000000D+05-2.607703208923D-08-2.281233447215D+00-5.774199962616D-08
    9.655313304840D-01 2.016250000000D+02 2.046909616379D+00-7.746394096979D-09
    2.728685089258D-10 1.000000000000D+00 2.417000000000D+03 0.000000000000D+00
    2.000000000000D+00 0.000000000000D+00 4.656612873077D-10 1.080000000000D+02
    2.448260000000D+05 4.000000000000D+00
11 26  5  5 22  0  0.0-3.500110469759D-04 1.261923898710D-11 0.000000000000D+00
    3.800000000000D+01 3.590625000000D+01 4.691623996400D-09-3.463465311347D-01
    1.935288310051D-06 2.247577067465D-03 2.015382051468D-06 5.153607088089D+03
    2.520000000000D+05-5.587935447693D-08 1.978027891864D+00 2.793967723846D-08
    9.630192924076D-01 3.440000000000D+02-2.343889798453D+00-8.340347408947D-09
    1.139333172086D-10 1.000000000000D+00 2.417000000000D+03 0.000000000000D+00
    2.000000000000D+00 0.000000000000D+00-8.847564458847D-09 8.060000000000D+02
    2.448180000000D+05 4.000000000000D+00
16 26  5  5 22  0  0.0 2.577626146376D-04 6.934897101019D-12 0.000000000000D+00
    5.500000000000D+01 1.153125000000D+01 4.482686721895D-09 1.481435611465D+00
    5.327165126801D-07 1.500010315794D-02 8.992850780487D-06 5.153677707672D+03
    2.520000000000D+05-2.626329660416D-07-7.310098945249D-02-2.235174179077D-08
    9.584007971258D-01 2.102187500000D+02 9.332537064029D-01-7.963188841636D-09
   -5.000208278745D-10 1.000000000000D+00 2.417000000000D+03 0.000000000000D+00
    2.000000000000D+00 0.000000000000D+00-1.071020960808D-08 5.500000000000D+01
    2.448000000000D+05
18 26  5  5 22  0  0.0-3.597172908485D-04 9.322320693173D-12 0.000000000000D+00
    2.000000000000D+00 3.321875000000D+01 4.384468344991D-09-1.574566592916D+00
    1.551583409309D-06 5.921942065470D-03 2.069398760796D-06 5.153629676819D+03
    2.520000000000D+05 5.960464477539D-08 1.954697354797D+00-3.725290298462D-08
    9.710928183709D-01 3.431250000000D+02-2.875121920643D+00-8.165697276925D-09
    1.964367538078D-10 1.000000000000D+00 2.417000000000D+03 0.000000000000D+00
    2.000000000000D+00 0.000000000000D+00-8.381903000000D-09 2.580000000000D+02
    2.448300000000D+05 4.000000000000D+00
21 26  5  5 22  0  0.0 4.149079322815D-04-4.547473508865D-13 0.000000000000D+00
    2.030000000000D+02-9.315625000000D+01 4.531617331480D-09 2.767835460051D+00
   -4.762783646584D-06 7.677096873522D-04 5.036592483521D-06 5.153547872543D+03
    2.520000000000D+05-7.450580596924D-09 3.002059053204D+00 4.470348358154D-08
    9.638174371049D-01 2.850625000000D+02-1.808094594855D-01-8.075336370173D-09
   -7.071723137082D-11 1.000000000000D+00 2.417000000000D+03 0.000000000000D+00
    2.000000000000D+00 0.000000000000D+00-9.778887033463D-09 4.590000000000D+02
    2.448260000000D+05 4.000000000000D+00
26 26  5  5 22  0  0.0-3.618053160608D-04-4.206412995700D-12 0.000000000000D+00
    5.300000000000D+01-2.687500000000D+00 5.193787770679D-09 2.264582588246D+00
   -2.700835466385D-07 1.105446484871D-02 7.828697562218D-06 5.153749017715D+03
    2.520000000000D+05-1.359730958939D-07-2.601446933507D-01-1.415610313416D-07
    9.283224363100D-01 2.125000000000D+02 7.136621277150D-01-8.157125491304D-09
   -4.089456056545D-10 1.000000000000D+00 2.417000000000D+03 0.000000000000D+00
    2.000000000000D+00 0.000000000000D+00 6.519258000000D-09 5.300000000000D+01
    2.448300000000D+05 4.000000000000D+00
27 26  5  5 22  0  0.0-1.382380723953D-04-1.716671249596D-11 0.000000000000D+00
    2.600000000000D+01 9.728125000000D+01 4.504830501415D-09 5.443107019827D-01
    5.019828677177D-06 1.434631436132D-02 7.972121238708D-06 5.153674747467D+03
    2.520000000000D+05-1.862645149231D-07 8.698722554310D-01 1.378357410431D-07
    9.519884687695D-01 2.237812500000D+02 8.959858624819D-01-8.142124866468D-09
   -1.039329006511D-10 1.000000000000D+00 2.417000000000D+03 0.000000000000D+00
    2.000000000000D+00 0.000000000000D+00 2.328306436539D-09 2.600000000000D+01
    2.489100000000D+05
